{
    "links": {
        "self": "http://www.neowsapp.com/rest/v1/neo/3765647?api_key=iIulBulltgU6a56xZRHN4H3l9WmuAYTsLGpBGhQ2"
    },
    "id": "3765647",
    "neo_reference_id": "3765647",
    "name": "(2016 XK2)",
    "designation": "2016 XK2",
    "nasa_jpl_url": "http://ssd.jpl.nasa.gov/sbdb.cgi?sstr=3765647",
    "absolute_magnitude_h": 24.0,
    "estimated_diameter": {
        "kilometers": {
            "estimated_diameter_min": 0.0421264611,
            "estimated_diameter_max": 0.0941976306
        },
        "meters": {
            "estimated_diameter_min": 42.1264610556,
            "estimated_diameter_max": 94.1976305719
        },
        "miles": {
            "estimated_diameter_min": 0.0261761612,
            "estimated_diameter_max": 0.0585316759
        },
        "feet": {
            "estimated_diameter_min": 138.2101784897,
            "estimated_diameter_max": 309.0473542854
        }
    },
    "is_potentially_hazardous_asteroid": false,
    "close_approach_data": [
        {
            "close_approach_date": "2016-11-26",
            "close_approach_date_full": "2016-Nov-26 20:20",
            "epoch_date_close_approach": 1480191600000,
            "relative_velocity": {
                "kilometers_per_second": "24.3575504782",
                "kilometers_per_hour": "87687.1817213569",
                "miles_per_hour": "54485.4046645842"
            },
            "miss_distance": {
                "astronomical": "0.1017019923",
                "lunar": "39.5620750047",
                "kilometers": "15214401.422836401",
                "miles": "9453790.6660522938"
            },
            "orbiting_body": "Earth"
        }
    ],
    "orbital_data": {
        "orbit_id": "2",
        "orbit_determination_date": "2017-04-06 08:21:36",
        "first_observation_date": "2016-12-05",
        "last_observation_date": "2016-12-06",
        "data_arc_in_days": 1,
        "observations_used": 22,
        "orbit_uncertainty": "9",
        "minimum_orbit_intersection": ".0321456",
        "jupiter_tisserand_invariant": "3.096",
        "epoch_osculation": "2457728.5",
        "eccentricity": ".7135269269205854",
        "semi_major_axis": "2.285214589154454",
        "inclination": "28.17051123183489",
        "ascending_node_longitude": "254.6660603607901",
        "orbital_period": "1261.795310103638",
        "perihelion_distance": ".6546524460009885",
        "perihelion_argument": "86.28639939167974",
        "aphelion_distance": "3.915776732307921",
        "perihelion_time": "2457670.580502595315",
        "mean_anomaly": "16.52488236303081",
        "mean_motion": ".2853077651480819",
        "equinox": "J2000",
        "orbit_class": {
            "orbit_class_type": "APO",
            "orbit_class_description": "Near-Earth asteroid orbits which cross the Earth’s orbit similar to that of 1862 Apollo",
            "orbit_class_range": "a (semi-major axis) > 1.0 AU; q (perihelion) < 1.017 AU"
        }
    },
    "is_sentry_object": false
}